{"type": "FeatureCollection", "features": [{"type": "Feature", "properties": {"taluka": "bicholim"}, "geometry": {"type": "Polygon", "coordinates": [[[73.9133, 15.5579], [73.9198, 15.5465], [73.9331, 15.5384], [73.9283, 15.5383], [73.9364, 15.532], [73.94, 15.5315], [73.9556, 15.5442], [73.9627, 15.5436], [73.969, 15.5387], [73.9756, 15.5292], [73.9782, 15.5218], [74.0, 15.5095], [74.0041, 15.5055], [74.0078, 15.4979], [74.0247, 15.4943], [74.0276, 15.4909], [74.0321, 15.4785], [74.0363, 15.4748], [74.0344, 15.4707], [74.0422, 15.4618], [74.0501, 15.4473], [74.0426, 15.4494], [74.0523, 15.439], [74.0548, 15.4312], [74.0601, 15.4323], [74.0592, 15.4231], [74.0555, 15.4183], [74.0592, 15.4146], [74.0602, 15.409], [74.0638, 15.4056], [74.0686, 15.4059], [74.0759, 15.4097], [74.08, 15.4091], [74.0837, 15.4135], [74.0959, 15.4202], [74.1052, 15.4229], [74.1138, 15.4244], [74.1169, 15.4168], [74.1202, 15.4252], [74.1251, 15.4309], [74.1161, 15.4395], [74.1053, 15.4331], [74.1006, 15.4453], [74.089, 15.4528], [74.0856, 15.4568], [74.0876, 15.462], [74.0916, 15.4658], [74.1028, 15.4682], [74.101, 15.4727], [74.0809, 15.4849], [74.0787, 15.4891], [74.0774, 15.4992], [74.0749, 15.5027], [74.0543, 15.5164], [74.0471, 15.5282], [74.0457, 15.5325], [74.0483, 15.5399], [74.0487, 15.5471], [74.0538, 15.5536], [74.0612, 15.5581], [74.0629, 15.5614], [74.0626, 15.567], [74.0592, 15.57], [74.0511, 15.5706], [74.0403, 15.5646], [74.0363, 15.566], [74.0286, 15.5633], [74.0115, 15.5693], [74.0057, 15.5727], [74.0029, 15.5775], [73.9989, 15.5764], [73.9936, 15.5934], [73.9902, 15.5953], [73.9848, 15.594], [73.9726, 15.6042], [73.9548, 15.6091], [73.953, 15.6127], [73.9595, 15.6174], [73.9724, 15.6176], [73.9814, 15.625], [73.976, 15.6289], [73.9693, 15.6443], [73.9757, 15.6598], [73.9716, 15.6684], [73.9713, 15.6873], [73.9657, 15.695], [73.9572, 15.6967], [73.9502, 15.6959], [73.9454, 15.6985], [73.9396, 15.6975], [73.9284, 15.6923], [73.9252, 15.689], [73.9225, 15.6891], [73.9197, 15.6933], [73.9068, 15.7007], [73.901, 15.6998], [73.8929, 15.6904], [73.893, 15.682], [73.9059, 15.6762], [73.9126, 15.6652], [73.9109, 15.6498], [73.9024, 15.6472], [73.8913, 15.6465], [73.8956, 15.6363], [73.8997, 15.6311], [73.9091, 15.6288], [73.9111, 15.6225], [73.908, 15.6064], [73.8967, 15.6097], [73.8969, 15.6052], [73.9049, 15.5941], [73.9044, 15.5905], [73.8965, 15.5794], [73.8958, 15.5751], [73.8976, 15.5716], [73.9011, 15.5695], [73.9059, 15.5738], [73.9102, 15.5716], [73.915, 15.5605], [73.9133, 15.5579]]]}}, {"type": "Feature", "properties": {"taluka": "bardez"}, "geometry": {"type": "Polygon", "coordinates": [[[73.893, 15.682], [73.8906, 15.6782], [73.8867, 15.677], [73.8741, 15.6769], [73.8696, 15.6751], [73.8636, 15.6716], [73.8586, 15.6659], [73.8517, 15.6623], [73.8495, 15.6581], [73.8503, 15.6446], [73.8413, 15.6476], [73.8259, 15.6496], [73.8192, 15.6493], [73.8071, 15.6455], [73.7938, 15.6502], [73.7892, 15.6482], [73.7821, 15.6368], [73.773, 15.6324], [73.7684, 15.6346], [73.7584, 15.6315], [73.7532, 15.6277], [73.7523, 15.6232], [73.7493, 15.6207], [73.7549, 15.6174], [73.7518, 15.6096], [73.7426, 15.6046], [73.739, 15.6074], [73.739, 15.609], [73.731, 15.6082], [73.7335, 15.6035], [73.7321, 15.599], [73.7343, 15.5935], [73.7312, 15.5904], [73.7365, 15.5854], [73.7368, 15.581], [73.7418, 15.5707], [73.741, 15.5635], [73.7449, 15.5607], [73.7485, 15.5615], [73.7513, 15.5571], [73.7649, 15.5074], [73.7663, 15.5065], [73.7671, 15.4999], [73.7643, 15.4979], [73.7643, 15.4951], [73.7671, 15.4935], [73.7679, 15.4907], [73.7751, 15.4899], [73.7787, 15.4926], [73.7857, 15.4924], [73.7882, 15.4954], [73.7857, 15.4976], [73.7887, 15.4999], [73.7962, 15.4985], [73.8102, 15.4918], [73.8144, 15.4915], [73.8244, 15.505], [73.8318, 15.5032], [73.8364, 15.5059], [73.8424, 15.5029], [73.8473, 15.5058], [73.8501, 15.5126], [73.8579, 15.5212], [73.8691, 15.5229], [73.883, 15.528], [73.8845, 15.5323], [73.8775, 15.5403], [73.8798, 15.5615], [73.8903, 15.5614], [73.8933, 15.5631], [73.9021, 15.5542], [73.9067, 15.5535], [73.9084, 15.5605], [73.9133, 15.5579], [73.915, 15.5605], [73.9102, 15.5716], [73.9059, 15.5738], [73.9011, 15.5695], [73.8976, 15.5716], [73.8958, 15.5751], [73.8965, 15.5794], [73.9044, 15.5905], [73.9049, 15.5941], [73.8969, 15.6052], [73.8967, 15.6097], [73.908, 15.6064], [73.9111, 15.6225], [73.9091, 15.6288], [73.8997, 15.6311], [73.8956, 15.6363], [73.8913, 15.6465], [73.9024, 15.6472], [73.9109, 15.6498], [73.9126, 15.6652], [73.9059, 15.6762], [73.893, 15.682]]]}}, {"type": "Feature", "properties": {"taluka": "tiswadi"}, "geometry": {"type": "Polygon", "coordinates": [[[73.9364, 15.532], [73.94, 15.5315], [73.9556, 15.5442], [73.9627, 15.5436], [73.969, 15.5387], [73.9669, 15.5319], [73.9594, 15.5217], [73.9533, 15.5211], [73.9691, 15.4988], [73.9629, 15.4942], [73.9633, 15.4835], [73.9603, 15.474], [73.9606, 15.4696], [73.9645, 15.4653], [73.9649, 15.4614], [73.9641, 15.4593], [73.9573, 15.4551], [73.9551, 15.4513], [73.9543, 15.4357], [73.9503, 15.4329], [73.9452, 15.4315], [73.9442, 15.4339], [73.9421, 15.4341], [73.9363, 15.4324], [73.9308, 15.4281], [73.9295, 15.4238], [73.9195, 15.4218], [73.9184, 15.4164], [73.9165, 15.4146], [73.9061, 15.4153], [73.8893, 15.4263], [73.8874, 15.4307], [73.8843, 15.4327], [73.8793, 15.4329], [73.8757, 15.4304], [73.8688, 15.4313], [73.8646, 15.4285], [73.8615, 15.4285], [73.8593, 15.4421], [73.8557, 15.4435], [73.849, 15.4521], [73.8432, 15.451], [73.8421, 15.4476], [73.8407, 15.4476], [73.8371, 15.4513], [73.834, 15.4507], [73.8296, 15.4535], [73.8187, 15.454], [73.816, 15.4524], [73.8121, 15.4557], [73.8082, 15.4538], [73.8037, 15.454], [73.8032, 15.4499], [73.7907, 15.461], [73.7876, 15.4615], [73.7882, 15.4651], [73.7979, 15.4601], [73.8021, 15.4618], [73.8049, 15.4657], [73.8071, 15.4746], [73.806, 15.4832], [73.8074, 15.486], [73.8057, 15.4934], [73.8144, 15.4915], [73.8244, 15.505], [73.8318, 15.5032], [73.8364, 15.5059], [73.8424, 15.5029], [73.8473, 15.5058], [73.8501, 15.5126], [73.8579, 15.5212], [73.8691, 15.5229], [73.883, 15.528], [73.8845, 15.5323], [73.8775, 15.5403], [73.8798, 15.5615], [73.8903, 15.5614], [73.8933, 15.5631], [73.9021, 15.5542], [73.9067, 15.5535], [73.9084, 15.5605], [73.9133, 15.5579], [73.92, 15.5462], [73.9331, 15.5384], [73.9287637863315, 15.53793927729772], [73.9364, 15.532]], [[73.8677, 15.5025], [73.8588, 15.5008], [73.85435862068965, 15.49872413793103], [73.8677, 15.5025]], [[73.8465, 15.4965], [73.84755659163987, 15.496799035369774], [73.8414, 15.4977], [73.8465, 15.4965]]]}}, {"type": "Feature", "properties": {"taluka": "pernem"}, "geometry": {"type": "Polygon", "coordinates": [[[73.9572, 15.6967], [73.9587, 15.7013], [73.956, 15.7048], [73.9589, 15.7113], [73.9508, 15.7232], [73.9498, 15.7326], [73.9454, 15.7415], [73.9242, 15.7428], [73.9148, 15.7455], [73.9086, 15.7423], [73.8859, 15.7473], [73.8824, 15.7494], [73.8802, 15.7526], [73.8843, 15.7646], [73.8868, 15.7671], [73.8869, 15.7703], [73.8751, 15.7829], [73.8759, 15.7932], [73.8735, 15.7953], [73.8655, 15.7975], [73.8616, 15.7939], [73.8601, 15.7878], [73.8558, 15.7833], [73.857, 15.7782], [73.8519, 15.7784], [73.8496, 15.776], [73.8451, 15.7634], [73.8388, 15.7609], [73.8403, 15.7562], [73.833, 15.7378], [73.8204, 15.7399], [73.8126, 15.7335], [73.8028, 15.7322], [73.7976, 15.7251], [73.7932, 15.7237], [73.7865, 15.7233], [73.7758, 15.7305], [73.7582, 15.7328], [73.7487, 15.7306], [73.7441, 15.7256], [73.741, 15.7187], [73.737, 15.7173], [73.7276, 15.7225], [73.7226, 15.7229], [73.711, 15.7202], [73.7027, 15.7249], [73.6919, 15.7269], [73.6825, 15.7253], [73.6793, 15.7224], [73.6799, 15.7207], [73.6829, 15.7218], [73.6832, 15.7201], [73.6868, 15.7207], [73.6901, 15.7185], [73.694, 15.7004], [73.6971, 15.6993], [73.6979, 15.6921], [73.7004, 15.6921], [73.7029, 15.6876], [73.7051, 15.6762], [73.7113, 15.6685], [73.7129, 15.6568], [73.7157, 15.6538], [73.7149, 15.6496], [73.7179, 15.6407], [73.721, 15.6365], [73.7226, 15.6301], [73.7279, 15.6276], [73.7329, 15.6168], [73.736, 15.6143], [73.7385, 15.6171], [73.7387, 15.6213], [73.7407, 15.624], [73.7462, 15.6268], [73.7493, 15.6207], [73.7523, 15.6232], [73.7532, 15.6277], [73.7584, 15.6315], [73.7684, 15.6346], [73.773, 15.6324], [73.7821, 15.6368], [73.7892, 15.6482], [73.7938, 15.6502], [73.8071, 15.6455], [73.8192, 15.6493], [73.8259, 15.6496], [73.8413, 15.6476], [73.8503, 15.6446], [73.8495, 15.6581], [73.8517, 15.6623], [73.8586, 15.6659], [73.8636, 15.6716], [73.8696, 15.6751], [73.8741, 15.6769], [73.8906, 15.6782], [73.893, 15.682], [73.8929, 15.6904], [73.901, 15.6998], [73.9068, 15.7007], [73.9125, 15.6985], [73.9197, 15.6933], [73.9225, 15.6891], [73.9252, 15.689], [73.9284, 15.6923], [73.9396, 15.6975], [73.9454, 15.6985], [73.9502, 15.6959], [73.9572, 15.6967]]]}}, {"type": "Feature", "properties": {"taluka": "ponda"}, "geometry": {"type": "Polygon", "coordinates": [[[73.969, 15.5387], [73.9669, 15.5319], [73.9594, 15.5217], [73.9533, 15.5211], [73.9691, 15.4988], [73.9629, 15.4942], [73.9633, 15.4835], [73.9603, 15.474], [73.9606, 15.4696], [73.9645, 15.4653], [73.9649, 15.4614], [73.9641, 15.4593], [73.9573, 15.4551], [73.9551, 15.4513], [73.9543, 15.4357], [73.9452, 15.4315], [73.9448, 15.4284], [73.9349, 15.4193], [73.9345, 15.4129], [73.9382, 15.4101], [73.9488, 15.4069], [73.9486, 15.4053], [73.9316, 15.4021], [73.9525, 15.3995], [73.9578, 15.3975], [73.9607, 15.3943], [73.9675, 15.3688], [73.9745, 15.365], [73.9843, 15.3648], [74.0024, 15.3525], [74.0078, 15.3505], [74.013, 15.345], [74.0137, 15.3308], [74.0188, 15.3061], [74.022, 15.3017], [74.0351, 15.2999], [74.0441, 15.3044], [74.0485, 15.3034], [74.0513, 15.2985], [74.0687, 15.295], [74.078, 15.2902], [74.0785, 15.2811], [74.0802, 15.2758], [74.0834, 15.2733], [74.0902, 15.2771], [74.0929, 15.2766], [74.0998, 15.269], [74.1028, 15.2679], [74.11, 15.2687], [74.1146, 15.2834], [74.1087, 15.2906], [74.1009, 15.2958], [74.092, 15.3237], [74.1027, 15.3379], [74.1063, 15.3455], [74.1117, 15.3453], [74.1088, 15.3489], [74.1081, 15.3532], [74.1111, 15.3547], [74.1107, 15.3658], [74.1029, 15.3739], [74.1026, 15.3766], [74.1054, 15.3776], [74.0983, 15.382], [74.0968, 15.3864], [74.0936, 15.3884], [74.0845, 15.3895], [74.0847, 15.3958], [74.0812, 15.401], [74.08, 15.4091], [74.0759, 15.4097], [74.0686, 15.4059], [74.0638, 15.4056], [74.0602, 15.409], [74.0592, 15.4146], [74.0555, 15.4183], [74.0592, 15.4231], [74.0601, 15.4323], [74.0548, 15.4312], [74.0523, 15.439], [74.0426, 15.4494], [74.0501, 15.4473], [74.0422, 15.4618], [74.0344, 15.4707], [74.0363, 15.4748], [74.0321, 15.4785], [74.0276, 15.4909], [74.0247, 15.4943], [74.0078, 15.4979], [74.0041, 15.5055], [74.0, 15.5095], [73.9782, 15.5218], [73.9756, 15.5292], [73.969, 15.5387]]]}}, {"type": "Feature", "properties": {"taluka": "sattari"}, "geometry": {"type": "Polygon", "coordinates": [[[74.1251, 15.4309], [74.1338, 15.4353], [74.1417, 15.4324], [74.1445, 15.4366], [74.1479, 15.4382], [74.1743, 15.4408], [74.1836, 15.4362], [74.193, 15.4427], [74.1956, 15.4511], [74.201, 15.4607], [74.2053, 15.465], [74.2283, 15.4745], [74.2373, 15.4832], [74.2563, 15.4895], [74.2572, 15.4968], [74.2608, 15.5008], [74.2819, 15.513], [74.2838, 15.5195], [74.2828, 15.5205], [74.2873, 15.526], [74.2829, 15.5416], [74.2789, 15.5487], [74.2726, 15.5543], [74.2676, 15.5634], [74.2646, 15.5608], [74.2543, 15.5658], [74.2544, 15.5725], [74.2574, 15.5755], [74.2564, 15.5826], [74.2652, 15.5902], [74.2655, 15.6016], [74.2685, 15.6096], [74.2675, 15.617], [74.2625, 15.6229], [74.2594, 15.6245], [74.2525, 15.6238], [74.2572, 15.6339], [74.2553, 15.6542], [74.245, 15.6656], [74.2419, 15.6659], [74.2368, 15.6619], [74.2316, 15.6665], [74.2241, 15.6589], [74.2288, 15.653], [74.2241, 15.6503], [74.2132, 15.649], [74.2099, 15.6541], [74.212, 15.6585], [74.2115, 15.661], [74.1963, 15.6649], [74.1945, 15.6721], [74.1981, 15.6737], [74.1977, 15.6789], [74.1901, 15.681], [74.183, 15.6774], [74.1787, 15.6714], [74.1754, 15.6702], [74.1734, 15.6521], [74.1659, 15.6524], [74.1632, 15.6486], [74.155, 15.6498], [74.1428, 15.6471], [74.126, 15.6503], [74.1228, 15.6452], [74.1126, 15.6431], [74.108, 15.6389], [74.1024, 15.639], [74.0806, 15.6262], [74.0735, 15.6267], [74.0568, 15.6227], [74.0393, 15.6209], [74.0356, 15.6093], [74.0279, 15.6046], [74.0132, 15.6093], [74.0024, 15.6091], [73.9929, 15.6163], [73.9902, 15.6206], [73.9814, 15.625], [73.9724, 15.6176], [73.9595, 15.6174], [73.953, 15.6127], [73.9548, 15.6091], [73.9726, 15.6042], [73.9848, 15.594], [73.9902, 15.5953], [73.9936, 15.5934], [73.9989, 15.5764], [74.0029, 15.5775], [74.0057, 15.5727], [74.0115, 15.5693], [74.0286, 15.5633], [74.0363, 15.566], [74.0403, 15.5646], [74.0511, 15.5706], [74.0592, 15.57], [74.0626, 15.567], [74.0629, 15.5614], [74.0612, 15.5581], [74.0538, 15.5536], [74.0487, 15.5471], [74.0483, 15.5399], [74.0457, 15.5325], [74.0471, 15.5282], [74.0543, 15.5164], [74.0749, 15.5027], [74.0774, 15.4992], [74.0787, 15.4891], [74.0809, 15.4849], [74.101, 15.4727], [74.1028, 15.4682], [74.0916, 15.4658], [74.0876, 15.462], [74.0856, 15.4568], [74.089, 15.4528], [74.1006, 15.4453], [74.1053, 15.4331], [74.1161, 15.4395], [74.1251, 15.4309]]]}}, {"type": "Feature", "properties": {"taluka": "canacona"}, "geometry": {"type": "Polygon", "coordinates": [[[73.9407, 15.1196], [73.9376, 15.1187], [73.9351, 15.1124], [73.9324, 15.1138], [73.9265, 15.1104], [73.9174, 15.1082], [73.9215, 15.1074], [73.9251, 15.1043], [73.9262, 15.0968], [73.9235, 15.0926], [73.9126, 15.086], [73.9118, 15.084], [73.9163, 15.0843], [73.9174, 15.0829], [73.9221, 15.086], [73.926, 15.0857], [73.9271, 15.0838], [73.9293, 15.0835], [73.929, 15.081], [73.9318, 15.0779], [73.9351, 15.0782], [73.9418, 15.0749], [73.9496, 15.0751], [73.954, 15.0726], [73.9538, 15.0704], [73.9587, 15.0701], [73.9638, 15.066], [73.9668, 15.066], [73.9662, 15.0624], [73.9701, 15.0599], [73.971, 15.0524], [73.9757, 15.0504], [73.9804, 15.0524], [73.9851, 15.0463], [73.9901, 15.0343], [73.9893, 15.0307], [73.9854, 15.029], [73.9854, 15.0251], [73.9882, 15.0238], [73.989, 15.0201], [73.9924, 15.0179], [73.9976, 15.0213], [73.999, 15.0182], [74.0015, 15.0188], [74.0049, 15.016], [74.0074, 15.0179], [74.0082, 15.0146], [74.0121, 15.0124], [74.0129, 15.0099], [74.0115, 15.0085], [74.0137, 15.0065], [74.0143, 15.0093], [74.0135, 15.0101], [74.0176, 15.014], [74.0168, 15.0126], [74.021, 15.0121], [74.0271, 15.0065], [74.0265, 15.004], [74.0243, 15.0035], [74.0254, 15.0007], [74.0271, 15.0026], [74.0299, 15.001], [74.0268, 14.9979], [74.0301, 14.9996], [74.0329, 14.999], [74.0385, 14.986], [74.0407, 14.9888], [74.0501, 14.9882], [74.0493, 14.9865], [74.044, 14.9885], [74.0438, 14.986], [74.0413, 14.984], [74.0382, 14.9854], [74.0343, 14.9838], [74.0349, 14.9824], [74.0396, 14.9818], [74.0421, 14.9788], [74.0429, 14.9724], [74.0449, 14.9713], [74.0488, 14.9582], [74.0507, 14.9593], [74.0535, 14.9582], [74.0485, 14.9571], [74.0462, 14.9518], [74.0476, 14.9504], [74.044, 14.9499], [74.0429, 14.9482], [74.0451, 14.946], [74.0429, 14.9418], [74.0457, 14.939], [74.0465, 14.9343], [74.0451, 14.9307], [74.0435, 14.9307], [74.0449, 14.9254], [74.0421, 14.9204], [74.0471, 14.9154], [74.0568, 14.9146], [74.0596, 14.9126], [74.0596, 14.9101], [74.0629, 14.9107], [74.0665, 14.9071], [74.0679, 14.9088], [74.071, 14.9074], [74.0771, 14.9101], [74.0804, 14.9099], [74.0832, 14.9065], [74.0826, 14.9035], [74.0851, 14.8996], [74.0882, 14.8982], [74.0938, 14.8988], [74.0974, 14.8957], [74.1131, 14.9112], [74.1173, 14.9096], [74.1227, 14.9126], [74.132, 14.9127], [74.1362, 14.9197], [74.1394, 14.9205], [74.1457, 14.9174], [74.1492, 14.9185], [74.1539, 14.9173], [74.1698, 14.9093], [74.1754, 14.9089], [74.1774, 14.9132], [74.1738, 14.9179], [74.166, 14.9368], [74.1661, 14.9394], [74.1697, 14.9422], [74.1699, 14.9473], [74.1722, 14.951], [74.1866, 14.9534], [74.1903, 14.9517], [74.1925, 14.945], [74.1974, 14.9433], [74.2042, 14.9379], [74.2031, 14.9274], [74.2118, 14.9214], [74.2247, 14.9413], [74.2417, 14.9465], [74.2439, 14.9575], [74.251, 14.9608], [74.2621, 14.9576], [74.2666, 14.9668], [74.2701, 14.9666], [74.271, 14.9715], [74.2739, 14.9752], [74.271, 14.9804], [74.2617, 14.9908], [74.2591, 14.9977], [74.2553, 15.0011], [74.2481, 15.0025], [74.2442, 15.0059], [74.2424, 15.0122], [74.2354, 15.0172], [74.2373, 15.0255], [74.237, 15.0346], [74.2217, 15.044], [74.2093, 15.0398], [74.2006, 15.0426], [74.1929, 15.043], [74.1849, 15.0409], [74.172, 15.047], [74.1686, 15.0511], [74.1757, 15.0547], [74.1763, 15.0594], [74.1684, 15.0663], [74.1349, 15.0682], [74.1209, 15.0667], [74.1156, 15.0678], [74.1146, 15.057], [74.1013, 15.0574], [74.097, 15.051], [74.0804, 15.0533], [74.0628, 15.0487], [74.0539, 15.0488], [74.0434, 15.0513], [74.0265, 15.0513], [74.0241, 15.0533], [74.0164, 15.0688], [74.012, 15.0849], [74.0127, 15.0978], [73.9869, 15.0946], [73.9671, 15.0859], [73.956, 15.1027], [73.9407, 15.1196]]]}}, {"type": "Feature", "properties": {"taluka": "salcete"}, "geometry": {"type": "Polygon", "coordinates": [[[73.9659, 15.3727], [73.9561, 15.3689], [73.9444, 15.3673], [73.9361, 15.3704], [73.932, 15.3595], [73.9217, 15.3523], [73.9216, 15.3353], [73.9135, 15.3231], [73.8993, 15.3171], [73.9093, 15.2901], [73.926, 15.231], [73.9285, 15.2262], [73.931, 15.2115], [73.9346, 15.2024], [73.9424, 15.171], [73.944, 15.1585], [73.9482, 15.1474], [73.9474, 15.1438], [73.9531, 15.1422], [73.9583, 15.1434], [73.9639, 15.1358], [73.9756, 15.1389], [73.9994, 15.1529], [74.0078, 15.1527], [74.0147, 15.1579], [74.0181, 15.1507], [74.0212, 15.1525], [74.0218, 15.1568], [74.025, 15.1579], [74.0277, 15.1655], [74.0316, 15.1674], [74.0323, 15.172], [74.0475, 15.1773], [74.043, 15.1929], [74.0481, 15.1936], [74.0551, 15.1991], [74.0547, 15.2162], [74.0637, 15.2169], [74.0708, 15.2234], [74.0628, 15.2244], [74.0546, 15.2281], [74.0528, 15.2315], [74.0536, 15.2409], [74.0507, 15.2432], [74.0547, 15.2472], [74.0543, 15.2517], [74.0596, 15.2525], [74.0616, 15.256], [74.067, 15.2562], [74.0674, 15.2597], [74.0737, 15.2629], [74.0773, 15.269], [74.0819, 15.2708], [74.0834, 15.2733], [74.0802, 15.2758], [74.0785, 15.2811], [74.078, 15.2902], [74.0687, 15.295], [74.0513, 15.2985], [74.0485, 15.3034], [74.0441, 15.3044], [74.0351, 15.2999], [74.022, 15.3017], [74.0188, 15.3061], [74.0137, 15.3308], [74.013, 15.345], [74.0078, 15.3505], [74.0024, 15.3525], [73.9843, 15.3648], [73.9705, 15.3662], [73.9659, 15.3727]]]}}, {"type": "Feature", "properties": {"taluka": "quepem"}, "geometry": {"type": "Polygon", "coordinates": [[[74.0834, 15.2733], [74.0819, 15.2708], [74.0773, 15.269], [74.0737, 15.2629], [74.0674, 15.2597], [74.067, 15.2562], [74.0616, 15.256], [74.0596, 15.2525], [74.0543, 15.2517], [74.0547, 15.2472], [74.0507, 15.2432], [74.0536, 15.2409], [74.0528, 15.2315], [74.0546, 15.2281], [74.0628, 15.2244], [74.0708, 15.2234], [74.0637, 15.2169], [74.0547, 15.2162], [74.0551, 15.1991], [74.0481, 15.1936], [74.043, 15.1929], [74.0475, 15.1773], [74.0323, 15.172], [74.0316, 15.1674], [74.0277, 15.1655], [74.025, 15.1579], [74.0218, 15.1568], [74.0212, 15.1525], [74.0181, 15.1507], [74.0147, 15.1579], [74.0078, 15.1527], [73.9994, 15.1529], [73.9756, 15.1389], [73.9678, 15.1361], [73.9623, 15.137], [73.9583, 15.1434], [73.9531, 15.1422], [73.9474, 15.1438], [73.944, 15.141], [73.9413, 15.1354], [73.9365, 15.1343], [73.9351, 15.1324], [73.9404, 15.1276], [73.9407, 15.1196], [73.956, 15.1027], [73.9671, 15.0859], [73.9869, 15.0946], [74.0127, 15.0978], [74.012, 15.0849], [74.0164, 15.0688], [74.0241, 15.0533], [74.0265, 15.0513], [74.0434, 15.0513], [74.0539, 15.0488], [74.0628, 15.0487], [74.0804, 15.0533], [74.097, 15.051], [74.1013, 15.0574], [74.1146, 15.057], [74.1156, 15.0678], [74.1209, 15.0667], [74.1349, 15.0682], [74.1684, 15.0663], [74.1763, 15.0594], [74.1757, 15.0547], [74.1686, 15.0511], [74.172, 15.047], [74.1849, 15.0409], [74.1929, 15.043], [74.1922, 15.0471], [74.2009, 15.0637], [74.1968, 15.0663], [74.2019, 15.0779], [74.1814, 15.0847], [74.1805, 15.0891], [74.1857, 15.1073], [74.1837, 15.1114], [74.1714, 15.1217], [74.1677, 15.1229], [74.1619, 15.1223], [74.1473, 15.1156], [74.1377, 15.1231], [74.1331, 15.1167], [74.1296, 15.1146], [74.1179, 15.1152], [74.1144, 15.1122], [74.1112, 15.1141], [74.1088, 15.1259], [74.1062, 15.1284], [74.1074, 15.1329], [74.0914, 15.1378], [74.0878, 15.1555], [74.0762, 15.1559], [74.074, 15.1645], [74.0777, 15.1669], [74.0737, 15.1752], [74.0925, 15.1818], [74.0976, 15.1888], [74.1137, 15.1896], [74.1193, 15.1807], [74.131, 15.1685], [74.1354, 15.1702], [74.1538, 15.1683], [74.1588, 15.1694], [74.1769, 15.1753], [74.1808, 15.1806], [74.1803, 15.1874], [74.1753, 15.1922], [74.1686, 15.1936], [74.1416, 15.214], [74.1412, 15.2314], [74.146, 15.2325], [74.1537, 15.2373], [74.1511, 15.247], [74.1468, 15.2465], [74.1447, 15.2509], [74.1411, 15.2516], [74.1367, 15.2502], [74.1363, 15.2554], [74.1326, 15.2583], [74.1338, 15.2694], [74.13, 15.2717], [74.1234, 15.267], [74.1184, 15.2659], [74.11, 15.2687], [74.1028, 15.2679], [74.0998, 15.269], [74.0929, 15.2766], [74.0902, 15.2771], [74.0834, 15.2733]]]}}, {"type": "Feature", "properties": {"taluka": "mormugao"}, "geometry": {"type": "MultiPolygon", "coordinates": [[[[73.9184, 15.4164], [73.9161, 15.4143], [73.9045, 15.4158], [73.8985, 15.42], [73.8901, 15.4257], [73.8968, 15.4149], [73.8949, 15.4074], [73.8926, 15.4088], [73.8879, 15.4076], [73.8863, 15.4063], [73.8868, 15.4026], [73.8826, 15.3985], [73.879, 15.399], [73.8768, 15.3968], [73.8715, 15.3971], [73.8715, 15.4004], [73.8651, 15.4029], [73.859, 15.3985], [73.8526, 15.4021], [73.849, 15.3999], [73.8454, 15.3999], [73.844, 15.4018], [73.8451, 15.4035], [73.8443, 15.4085], [73.8396, 15.411], [73.834, 15.4099], [73.8324, 15.4065], [73.8282, 15.4071], [73.8274, 15.4035], [73.8235, 15.4057], [73.8221, 15.4101], [73.8168, 15.411], [73.8165, 15.4043], [73.8093, 15.401], [73.8082, 15.4063], [73.801, 15.4121], [73.7968, 15.4129], [73.7921, 15.4188], [73.7899, 15.4143], [73.7843, 15.4143], [73.7826, 15.4104], [73.7871, 15.4024], [73.7904, 15.3999], [73.789, 15.3965], [73.791, 15.394], [73.8037, 15.3949], [73.8063, 15.3926], [73.8076, 15.386], [73.8068, 15.3785], [73.8082, 15.3768], [73.8126, 15.3765], [73.8151, 15.374], [73.821, 15.3732], [73.8221, 15.3707], [73.8262, 15.3696], [73.8315, 15.371], [73.834, 15.3696], [73.8365, 15.3635], [73.841, 15.3604], [73.8515, 15.361], [73.854, 15.3663], [73.861, 15.3657], [73.8632, 15.3696], [73.8735, 15.3701], [73.8865, 15.3504], [73.8999, 15.318], [73.9135, 15.3231], [73.9216, 15.3353], [73.9217, 15.3523], [73.932, 15.3595], [73.9361, 15.3704], [73.9444, 15.3673], [73.9561, 15.3689], [73.9659, 15.3727], [73.9632, 15.3868], [73.9607, 15.3943], [73.9578, 15.3975], [73.9525, 15.3995], [73.9316, 15.4021], [73.9486, 15.4053], [73.9488, 15.4069], [73.9382, 15.4101], [73.9344, 15.4133], [73.9349, 15.4193], [73.9448, 15.4284], [73.9442, 15.4339], [73.9363, 15.4324], [73.9308, 15.4281], [73.9302, 15.4245], [73.9272, 15.4227], [73.9195, 15.4218], [73.9184, 15.4164]]], [[[73.89, 15.4258], [73.8899, 15.4258], [73.8896, 15.4261], [73.8896, 15.4257], [73.89, 15.4258]]], [[[73.7824, 15.3554], [73.7668, 15.3524], [73.7621, 15.3551], [73.7607, 15.3521], [73.7649, 15.3499], [73.7676, 15.3512], [73.7715, 15.3499], [73.7796, 15.351], [73.7799, 15.349], [73.7821, 15.3485], [73.7849, 15.3515], [73.7824, 15.3554]]], [[[73.7974, 15.3785], [73.7946, 15.379], [73.7926, 15.3768], [73.7929, 15.3746], [73.7962, 15.3724], [73.799, 15.3757], [73.7993, 15.3782], [73.7974, 15.3785]]], [[[73.8654, 15.4074], [73.8618, 15.4079], [73.8613, 15.4051], [73.8626, 15.4032], [73.8654, 15.4037], [73.8654, 15.4074]]]]}}, {"type": "Feature", "properties": {"taluka": "sanguem"}, "geometry": {"type": "Polygon", "coordinates": [[[74.08, 15.4091], [74.0812, 15.401], [74.0847, 15.3958], [74.0845, 15.3895], [74.0936, 15.3884], [74.0968, 15.3864], [74.0983, 15.382], [74.1054, 15.3776], [74.1026, 15.3766], [74.1029, 15.3739], [74.1107, 15.3658], [74.1111, 15.3547], [74.1081, 15.3532], [74.1088, 15.3489], [74.1117, 15.3453], [74.1063, 15.3455], [74.1027, 15.3379], [74.092, 15.3237], [74.1009, 15.2958], [74.1087, 15.2906], [74.1146, 15.2834], [74.11, 15.2687], [74.1184, 15.2659], [74.1234, 15.267], [74.13, 15.2717], [74.1338, 15.2694], [74.1326, 15.2583], [74.1363, 15.2554], [74.1367, 15.2502], [74.1411, 15.2516], [74.1447, 15.2509], [74.1468, 15.2465], [74.1511, 15.247], [74.1537, 15.2373], [74.146, 15.2325], [74.1412, 15.2314], [74.1416, 15.214], [74.1686, 15.1936], [74.1753, 15.1922], [74.1803, 15.1874], [74.1808, 15.1806], [74.1769, 15.1753], [74.1588, 15.1694], [74.1538, 15.1683], [74.1354, 15.1702], [74.131, 15.1685], [74.1193, 15.1807], [74.1137, 15.1896], [74.0976, 15.1888], [74.0925, 15.1818], [74.0737, 15.1752], [74.0777, 15.1669], [74.074, 15.1645], [74.0746, 15.1592], [74.0762, 15.1559], [74.0878, 15.1555], [74.0914, 15.1378], [74.1074, 15.1329], [74.1062, 15.1284], [74.1088, 15.1259], [74.1112, 15.1141], [74.1144, 15.1122], [74.1179, 15.1152], [74.1296, 15.1146], [74.1331, 15.1167], [74.1377, 15.1231], [74.1473, 15.1156], [74.1619, 15.1223], [74.1677, 15.1229], [74.1714, 15.1217], [74.1837, 15.1114], [74.1857, 15.1073], [74.1805, 15.0891], [74.1814, 15.0847], [74.2019, 15.0779], [74.1968, 15.0663], [74.2009, 15.0637], [74.1922, 15.0471], [74.1929, 15.043], [74.2006, 15.0426], [74.2093, 15.0398], [74.2217, 15.044], [74.237, 15.0346], [74.2373, 15.0255], [74.2354, 15.0172], [74.2424, 15.0122], [74.2442, 15.0059], [74.2481, 15.0025], [74.2553, 15.0011], [74.2591, 14.9977], [74.2617, 14.9908], [74.2707, 14.9949], [74.2729, 15.0015], [74.2718, 15.0025], [74.2764, 15.0096], [74.2898, 15.0216], [74.2891, 15.0301], [74.3023, 15.0399], [74.295, 15.0543], [74.2953, 15.0627], [74.289, 15.0658], [74.2872, 15.0694], [74.2838, 15.094], [74.2783, 15.0959], [74.2811, 15.1018], [74.2882, 15.1056], [74.2906, 15.1166], [74.2931, 15.12], [74.2897, 15.13], [74.2912, 15.1354], [74.2896, 15.1431], [74.2926, 15.1477], [74.2978, 15.1463], [74.3014, 15.1499], [74.3109, 15.162], [74.3219, 15.1841], [74.317, 15.1911], [74.3156, 15.2032], [74.3107, 15.209], [74.3101, 15.2134], [74.3067, 15.219], [74.3067, 15.2232], [74.3021, 15.2281], [74.2943, 15.232], [74.2708, 15.2385], [74.2635, 15.2419], [74.2593, 15.25], [74.2575, 15.2576], [74.2679, 15.2584], [74.2766, 15.2744], [74.283, 15.2813], [74.2891, 15.2791], [74.2955, 15.2831], [74.3, 15.2823], [74.3023, 15.2859], [74.3184, 15.2819], [74.3341, 15.2829], [74.3417, 15.2929], [74.3404, 15.2968], [74.328, 15.3133], [74.3233, 15.3296], [74.3284, 15.3434], [74.3226, 15.3573], [74.3236, 15.362], [74.3286, 15.3655], [74.3284, 15.3673], [74.3128, 15.3749], [74.3057, 15.3805], [74.2862, 15.3826], [74.2826, 15.3886], [74.2845, 15.4015], [74.2774, 15.4149], [74.2756, 15.4239], [74.2827, 15.4333], [74.28, 15.4359], [74.283, 15.4375], [74.2825, 15.4431], [74.2726, 15.4652], [74.2563, 15.4895], [74.2373, 15.4832], [74.2283, 15.4745], [74.2053, 15.465], [74.201, 15.4607], [74.1956, 15.4511], [74.193, 15.4427], [74.1836, 15.4362], [74.1743, 15.4408], [74.1479, 15.4382], [74.1445, 15.4366], [74.1417, 15.4324], [74.1338, 15.4353], [74.1251, 15.4309], [74.1202, 15.4252], [74.1169, 15.4168], [74.1138, 15.4244], [74.1052, 15.4229], [74.0959, 15.4202], [74.0837, 15.4135], [74.08, 15.4091]]]}}]}